street_number,street_name,city,state,country,postcode,coordinates_latitude,coordinates_longitude,timezone_offset,timezone_description,email
666,Maçka Cd,Tekirdağ,Eskişehir,Turkey,83983,70.8490,-42.1548,+5:45,Kathmandu,fatih.cagiran@example.com
8628,Adama van Scheltemalaan,Egmond aan Zee,Zuid-Holland,Netherlands,76113,7.6347,-15.1870,+11:00,"Magadan, Solomon Islands, New Caledonia",dhiradj.venhorst@example.com
2318,Place de L'Abbé-Jean-Lebeuf,Champigny-sur-Marne,Territoire De Belfort,France,70740,46.1565,-56.8087,-3:30,Newfoundland,romane.pierre@example.com
9792,آیت الله طالقانی,بیرجند,مازندران,Iran,76306,75.8188,138.4384,+9:00,"Tokyo, Seoul, Osaka, Sapporo, Yakutsk",awyn.khrymy@example.com
3280,Christian Winthers Vej,Pandrup,Nordjylland,Denmark,47086,-11.8455,-123.2206,+5:30,"Bombay, Calcutta, Madras, New Delhi",rasmus.hansen@example.com
5203,Anafartalar Cd,Van,Ağrı,Turkey,11951,-16.7045,7.6825,-5:00,"Eastern Time (US & Canada), Bogota, Lima",esat.akar@example.com
1579,Westheimer Rd,Tweed,Western Australia,Australia,1395,49.5548,-112.0842,-3:00,"Brazil, Buenos Aires, Georgetown",violet.morrison@example.com
531,Filistin Cd,Iğdır,Karabük,Turkey,60730,-41.1653,59.8312,+4:00,"Abu Dhabi, Muscat, Baku, Tbilisi",esma.sinanoglu@example.com
2836,Otavalankatu,Vesanto,North Karelia,Finland,52163,85.5358,-54.0990,+9:30,"Adelaide, Darwin",sanni.kyllonen@example.com
1188,Victoria Ave,Radisson,Manitoba,Canada,Z4O 2J3,-51.1435,80.2962,+5:45,Kathmandu,carter.cote@example.com
814,Jasminvej,Viby J.,Sjælland,Denmark,58249,13.7014,-25.0059,-2:00,Mid-Atlantic,villads.nielsen@example.com
3382,Elgin St,Maidstone,Northwest Territories,Canada,Y9A 7T0,-64.6492,-1.1063,-8:00,Pacific Time (US & Canada),dylan.fortin@example.com
118,King Street,Southampton,South Glamorgan,United Kingdom,HA95 5NG,-89.4747,-69.1294,+3:30,Tehran,benjamin.thompson@example.com
5125,Duikerplantsoen,Lierderholthuis,Groningen,Netherlands,78780,-58.4196,-17.1464,-2:00,Mid-Atlantic,nazik.verstraten@example.com
1187,Duparcweg,Schipluiden,Zuid-Holland,Netherlands,38065,31.8384,0.1744,+3:00,"Baghdad, Riyadh, Moscow, St. Petersburg",yme.vandenmaagdenberg@example.com
317,Calle de Arganzuela,Vitoria,Castilla la Mancha,Spain,75640,24.1096,-19.1421,+4:30,Kabul,sandra.gallego@example.com
2039,20th Ave,Victoria,Québec,Canada,J8X 9B5,-38.9849,-121.7692,-2:00,Mid-Atlantic,benjamin.bergeron@example.com
5454,Europarådets plass,Forsand,Akershus,Norway,3646,52.5141,-50.7474,-11:00,"Midway Island, Samoa",wiktoria.vollan@example.com
9272,Flaenveien,Åse,Finnmark - Finnmárku,Norway,1387,-58.2355,-159.5635,+5:00,"Ekaterinburg, Islamabad, Karachi, Tashkent",rachel.forsund@example.com
1448,Ronda de Toledo,Móstoles,Canarias,Spain,83472,4.7000,-55.2778,+7:00,"Bangkok, Hanoi, Jakarta",julian.soler@example.com
5840,Calle Nebrija,Santiago de Compostela,Cataluña,Spain,20902,-8.6890,133.2254,-8:00,Pacific Time (US & Canada),ines.caballero@example.com
5505,Fredrikinkatu,Nivala,Southern Ostrobothnia,Finland,61219,-11.9090,-69.4386,-2:00,Mid-Atlantic,ella.saksa@example.com
2857,Veitvetveien,Måløy,Bergen,Norway,1916,-33.4943,-38.5605,+5:30,"Bombay, Calcutta, Madras, New Delhi",ole.lidal@example.com
1389,Dufferin St,Selkirk,Québec,Canada,X5R 6B7,85.9914,145.7623,+5:00,"Ekaterinburg, Islamabad, Karachi, Tashkent",zachary.kowalski@example.com
2889,Kanalen,Moss,Oslo,Norway,2608,-11.4886,-158.3667,-3:30,Newfoundland,stanislaw.mohammadi@example.com
3243,E Pecan St,Bendigo,South Australia,Australia,518,-68.6392,-8.6590,+11:00,"Magadan, Solomon Islands, New Caledonia",phillip.castro@example.com
3485,Remuera Road,Palmerston North,Southland,New Zealand,87630,24.6752,-168.5614,+7:00,"Bangkok, Hanoi, Jakarta",freya.jackson@example.com
1813,Dr. Cuypersstraat,Nutter,Zuid-Holland,Netherlands,33675,-53.1412,-170.9379,+4:30,Kabul,nuran.weterings@example.com
8191,W Sherman Dr,Townsville,Queensland,Australia,6498,-65.2270,-61.8330,+11:00,"Magadan, Solomon Islands, New Caledonia",ida.soto@example.com
4555,Tønsberggata,Miland,Trøndelag,Norway,7869,66.2995,34.4077,+4:00,"Abu Dhabi, Muscat, Baku, Tbilisi",emrik.ronne@example.com
6881,Stanley Way,Stratford,Manitoba,Canada,Y5N 2R3,-48.8150,-162.3923,-1:00,"Azores, Cape Verde Islands",victoria.bergeron@example.com
6834,Schlossstraße,Rietberg,Hessen,Germany,28307,10.5651,71.6733,+4:30,Kabul,ricarda.meyer@example.com
9670,Avenida da Legalidade,Pouso Alegre,Paraná,Brazil,80436,-36.5503,38.7886,+3:00,"Baghdad, Riyadh, Moscow, St. Petersburg",zacarias.castro@example.com
3786,Hickory Creek Dr,Scottsdale,West Virginia,United States,18659,47.6458,153.6927,+4:00,"Abu Dhabi, Muscat, Baku, Tbilisi",jerry.castro@example.com
5491,Rautatienkatu,Paimio,Tavastia Proper,Finland,78667,-20.1416,-136.3914,+4:00,"Abu Dhabi, Muscat, Baku, Tbilisi",olivia.seppala@example.com
8351,Hatanpään Valtatie,Liperi,Southern Ostrobothnia,Finland,86356,14.2720,-75.0167,+4:30,Kabul,minttu.heikkinen@example.com
4699,Septembervej,Samsø,Hovedstaden,Denmark,14678,39.3981,43.9166,+8:00,"Beijing, Perth, Singapore, Hong Kong",sofie.petersen@example.com
1281,Taupo Quay,Wellington,Northland,New Zealand,54423,-65.4995,85.8841,-11:00,"Midway Island, Samoa",jordan.cooper@example.com
2683,Hillcrest Rd,Tampa,Illinois,United States,10037,-4.9451,67.5753,+3:00,"Baghdad, Riyadh, Moscow, St. Petersburg",miriam.armstrong@example.com
6018,Lundvej,Lundby,Danmark,Denmark,82645,44.2622,63.7286,+7:00,"Bangkok, Hanoi, Jakarta",andrea.petersen@example.com
6869,Rua Belo Horizonte ,Santarém,Piauí,Brazil,12869,-73.0154,-40.1242,+5:30,"Bombay, Calcutta, Madras, New Delhi",virginia.silveira@example.com
3219,Ash Dr,Cincinnati,North Carolina,United States,34555,17.7469,-67.7534,-5:00,"Eastern Time (US & Canada), Bogota, Lima",perry.wagner@example.com
8078,Rua Castro Alves ,Votorantim,Tocantins,Brazil,25687,-7.9150,-151.7118,+4:00,"Abu Dhabi, Muscat, Baku, Tbilisi",bernardete.gomes@example.com
1469,Søndervænget,Sandved,Danmark,Denmark,38962,-15.1223,-31.8743,-3:30,Newfoundland,astrid.christiansen@example.com
9679,Wellington St,Southampton,Northwest Territories,Canada,G4E 2L7,80.2048,-85.2985,+9:30,"Adelaide, Darwin",philippe.wilson@example.com
9325,Marine Parade,Hastings,Marlborough,New Zealand,55821,-71.2249,173.4250,0:00,"Western Europe Time, London, Lisbon, Casablanca",flynn.turner@example.com
5609,London Road,Leeds,West Sussex,United Kingdom,IG39 1BP,50.4131,89.8768,+6:00,"Almaty, Dhaka, Colombo",charles.walker@example.com
4519,Orreveien,Holmsbu,Akershus,Norway,1283,-48.9303,-82.7856,-3:30,Newfoundland,sigmund.finnerud@example.com
5657,Kirchplatz,Saalburg-Ebersdorf,Brandenburg,Germany,53854,-27.4053,47.4003,+8:00,"Beijing, Perth, Singapore, Hong Kong",agathe.westphal@example.com
8354,Tamaki Drive,Gisborne,Tasman,New Zealand,16045,-73.9436,24.7603,+10:00,"Eastern Australia, Guam, Vladivostok",isabella.zhang@example.com
5603,Nørrevang,Snertinge,Midtjylland,Denmark,82412,24.0061,66.0211,+10:00,"Eastern Australia, Guam, Vladivostok",oscar.nielsen@example.com
5743,خاوران,گلستان,خراسان جنوبی,Iran,81620,57.3407,-107.3927,-9:00,Alaska,sm.shylyrd@example.com
8210,Rua Primeiro de Maio ,Araras,Goiás,Brazil,41092,-65.6690,-146.0648,+9:30,"Adelaide, Darwin",meire.rodrigues@example.com
4692,Ash Dr,Seagoville,Maine,United States,93192,-14.1070,141.3540,0:00,"Western Europe Time, London, Lisbon, Casablanca",joshua.curtis@example.com
5656,Avenue du Fort-Caire,Bourrignon,Appenzell Innerrhoden,Switzerland,9900,-78.7532,69.0639,+5:00,"Ekaterinburg, Islamabad, Karachi, Tashkent",henriette.boyer@example.com
2228,Central St,Little Rock,Idaho,United States,98080,-84.9011,14.3555,+7:00,"Bangkok, Hanoi, Jakarta",jerome.bailey@example.com
9200,Calle del Prado,Ciudad Real,Galicia,Spain,96754,22.5358,-127.9756,-7:00,Mountain Time (US & Canada),consuelo.gallardo@example.com
6311,Avenue du Château,Gilly,Valais,Switzerland,7518,64.4584,-10.8389,-2:00,Mid-Atlantic,gloria.morin@example.com
4090,Aleksanterinkatu,Lapinjärvi,Kymenlaakso,Finland,17743,-46.5032,26.2860,-2:00,Mid-Atlantic,hilla.leinonen@example.com
9085,Avenue Goerges Clémenceau,Mezzovico-Vira,Jura,Switzerland,2959,-88.5295,-78.8930,-6:00,"Central Time (US & Canada), Mexico City",rodrigo.gaillard@example.com
3686,Kapellenweg,Schönau,Niedersachsen,Germany,56100,-58.9634,178.7907,-4:00,"Atlantic Time (Canada), Caracas, La Paz",marie.dietrich@example.com
7497,Pine Hill Road,Auckland,Otago,New Zealand,91570,15.2924,-84.6000,-4:00,"Atlantic Time (Canada), Caracas, La Paz",aiden.wang@example.com
203,North Road,Lower Hutt,Canterbury,New Zealand,71207,4.7961,118.8726,+9:30,"Adelaide, Darwin",cooper.robinson@example.com
9795,Spring Hill Rd,Thornton,Minnesota,United States,67702,73.8709,-37.8766,-10:00,Hawaii,bob.brown@example.com
6704,Avenida da Legalidade,Santo André,Rio Grande do Norte,Brazil,81236,-63.3148,164.5153,+6:00,"Almaty, Dhaka, Colombo",fortunata.pereira@example.com
7888,Stanley Way,Selkirk,Manitoba,Canada,I4P 4A6,-48.3567,-158.0078,+6:00,"Almaty, Dhaka, Colombo",camille.anderson@example.com
2590,Lerchenweg,Lauchhammer,Rheinland-Pfalz,Germany,87360,-58.6256,89.6244,+8:00,"Beijing, Perth, Singapore, Hong Kong",sandy.brauer@example.com
7252,Fliederweg,Konz,Hamburg,Germany,97233,33.3220,-18.4989,-1:00,"Azores, Cape Verde Islands",telse.haarmann@example.com
9578,Gartenstraße,Hallstadt,Saarland,Germany,15332,-9.0958,75.7851,+4:30,Kabul,marzena.manthey@example.com
5745,Georges Bizethof,De Knipe,Noord-Brabant,Netherlands,86136,-33.4137,-124.5363,+6:00,"Almaty, Dhaka, Colombo",talisa.sonmez@example.com
2198,Rue de L'Abbé-Roger-Derry,Saint-Pierre,Hauts-de-Seine,France,57064,45.4222,130.6081,-10:00,Hawaii,theo.laurent@example.com
1827,Manor Road,Swansea,Merseyside,United Kingdom,OT21 7XA,14.5272,-102.1632,-3:00,"Brazil, Buenos Aires, Georgetown",lucy.perkins@example.com
315,E Sandy Lake Rd,Orange,South Australia,Australia,4000,57.5800,-67.2482,+1:00,"Brussels, Copenhagen, Madrid, Paris",rafael.flores@example.com
7556,Lindenstraße,Heidelberg,Schleswig-Holstein,Germany,20413,-66.1428,94.7632,+9:30,"Adelaide, Darwin",egbert.haake@example.com
7876,ولیعصر / مصدق,اراک,چهارمحال و بختیاری,Iran,43899,-88.4236,69.3063,+3:30,Tehran,mrym.jaafry@example.com
378,Calle de Pedro Bosch,Sevilla,Melilla,Spain,25952,-23.6277,148.3366,-9:00,Alaska,noelia.roman@example.com
5867,Cumberland Street,Invercargill,Nelson,New Zealand,10943,-64.3416,6.4544,+2:00,"Kaliningrad, South Africa",beau.white@example.com
3524,Rue Abel,Saint-Étienne,Ille-et-Vilaine,France,58716,71.7259,-44.8424,-1:00,"Azores, Cape Verde Islands",lily.roche@example.com
5374,Park Rd,Cartwright,Nunavut,Canada,J3E 7B1,77.5438,28.2451,+4:30,Kabul,maya.mackay@example.com
807,Rue de L'Abbé-Migne,Le Havre,Finistère,France,52102,73.4087,107.8638,+5:30,"Bombay, Calcutta, Madras, New Delhi",mahe.schmitt@example.com
3327,Rua Santos Dumont ,Valinhos,Paraná,Brazil,60921,60.4760,-109.8289,+6:00,"Almaty, Dhaka, Colombo",cirleni.mendes@example.com
5217,Beverveien,Sem,Vestfold,Norway,8666,-44.7085,-144.3566,-4:00,"Atlantic Time (Canada), Caracas, La Paz",nicole.lindqvist@example.com
7021,Kærbyvej,Amager,Midtjylland,Denmark,99999,33.7589,166.0632,-5:00,"Eastern Time (US & Canada), Bogota, Lima",sara.moller@example.com
9365,Calle de Atocha,Elche,País Vasco,Spain,98982,-84.9998,75.2941,+9:30,"Adelaide, Darwin",javier.pascual@example.com
7803,North Road,Letterkenny,Waterford,Ireland,90630,-78.6195,150.9002,+5:00,"Ekaterinburg, Islamabad, Karachi, Tashkent",kristin.jensen@example.com
3514,Lyngvej,Nykøbing Sj.,Danmark,Denmark,37208,-58.9216,131.6809,+3:00,"Baghdad, Riyadh, Moscow, St. Petersburg",victor.kristensen@example.com
2626,Rua Bela Vista ,Divinópolis,Santa Catarina,Brazil,69910,46.1975,156.2002,-3:00,"Brazil, Buenos Aires, Georgetown",sesinando.cavalcanti@example.com
3035,Calle de Bravo Murillo,Albacete,Región de Murcia,Spain,33010,-71.9267,-43.8254,+4:30,Kabul,felipe.castro@example.com
1700,E Sandy Lake Rd,Townsville,Australian Capital Territory,Australia,4889,21.1310,26.8970,+7:00,"Bangkok, Hanoi, Jakarta",ralph.james@example.com
6641,Mevlana Cd,Tokat,Batman,Turkey,91674,-79.4064,-76.2742,+6:00,"Almaty, Dhaka, Colombo",volkan.sezek@example.com
7442,Krokusveien,Hægeland,Finnmark - Finnmárku,Norway,0783,63.2022,-123.6397,-9:00,Alaska,emily.bjorstad@example.com
9881,London Road,Newport,Cumbria,United Kingdom,AG92 4BA,53.1069,44.8634,-1:00,"Azores, Cape Verde Islands",molly.neal@example.com
3943,Rue Victor-Hugo,Thörigen,Schaffhausen,Switzerland,6701,66.6880,178.3437,+9:00,"Tokyo, Seoul, Osaka, Sapporo, Yakutsk",mariana.renaud@example.com
6637,Filistin Cd,Zonguldak,Kayseri,Turkey,37260,44.7262,-83.9781,-7:00,Mountain Time (US & Canada),mehmet.agaoglu@example.com
7044,School Lane,Donabate,Dún Laoghaire–Rathdown,Ireland,26205,87.4354,170.1977,-10:00,Hawaii,benjamin.bates@example.com
6792,Rotuaari,Imatra,Ostrobothnia,Finland,40938,-5.4011,-86.6050,+11:00,"Magadan, Solomon Islands, New Caledonia",linnea.kokko@example.com
9112,Northaven Rd,Tempe,Pennsylvania,United States,88910,41.1541,154.3426,-2:00,Mid-Atlantic,bruce.torres@example.com
7473,Verkatehtaankatu,Halsua,Finland Proper,Finland,53857,46.3514,90.7196,-3:30,Newfoundland,julius.makela@example.com
5299,Avenida da Legalidade,Tatuí,Roraima,Brazil,35990,50.5828,68.8944,-12:00,"Eniwetok, Kwajalein",charlene.alves@example.com
4335,Hatanpään Valtatie,Nurmes,Northern Ostrobothnia,Finland,73843,-78.6702,-86.6605,+5:30,"Bombay, Calcutta, Madras, New Delhi",sara.luoma@example.com
2779,Hoge Tilweg,Nuenen,Drenthe,Netherlands,20006,-53.5593,59.6636,-5:00,"Eastern Time (US & Canada), Bogota, Lima",jeppe.devlugt@example.com
2533,Brown Terrace,Bunbury,Victoria,Australia,555,-50.9259,-122.7117,+6:00,"Almaty, Dhaka, Colombo",elmer.tucker@example.com
4513,Kierschows gate,Larkollen,Vestfold,Norway,0959,14.4789,-56.9575,+9:30,"Adelaide, Darwin",mathis.fonn@example.com
6334,Damstredet,Viggja,Hedmark,Norway,7417,11.5380,88.2313,+5:00,"Ekaterinburg, Islamabad, Karachi, Tashkent",sina.pilskog@example.com
533,Place du 8 Février 1962,Clermont-Ferrand,Côtes-D'Armor,France,48718,80.9406,-80.3524,+4:30,Kabul,charly.guerin@example.com
5095,Pispalan Valtatie,Kuhmo,Lapland,Finland,60574,62.1587,-152.7398,+10:00,"Eastern Australia, Guam, Vladivostok",toivo.kivela@example.com
4602,پارک ولیعصر,شهریار,هرمزگان,Iran,94252,14.9590,147.1749,0:00,"Western Europe Time, London, Lisbon, Casablanca",mhn.qsmy@example.com
6536,Place Paul-Duquaire,Bourg-Saint-Pierre,Nidwalden,Switzerland,1513,65.4596,6.7568,+2:00,"Kaliningrad, South Africa",pierre-andre.philippe@example.com
3949,Calle de Pedro Bosch,Valencia,Cantabria,Spain,55317,-9.4506,-22.1878,0:00,"Western Europe Time, London, Lisbon, Casablanca",rosario.garcia@example.com
9774,Place des 44 Enfants D'Izieu,Poitiers,Pyrénées-Orientales,France,25573,72.8450,66.6881,-3:00,"Brazil, Buenos Aires, Georgetown",maya.michel@example.com
1878,Otavalankatu,Humppila,Central Finland,Finland,21263,-36.8736,-34.7619,+4:00,"Abu Dhabi, Muscat, Baku, Tbilisi",aatu.lepisto@example.com
6715,Emmapark,Meedhuizen,Zuid-Holland,Netherlands,21302,12.1219,-9.7777,-6:00,"Central Time (US & Canada), Mexico City",niyazi.hess@example.com
95,Finnhaugveien,Ryggebyen,Telemark,Norway,5264,64.6240,87.0474,+4:00,"Abu Dhabi, Muscat, Baku, Tbilisi",olivier.linge@example.com
61,Green Lane,Aberdeen,Staffordshire,United Kingdom,NK8B 3LS,76.7143,159.8907,+4:00,"Abu Dhabi, Muscat, Baku, Tbilisi",vernon.may@example.com
3181,Calle del Pez,Granada,Castilla y León,Spain,97521,53.3437,69.1311,+6:00,"Almaty, Dhaka, Colombo",ricardo.martin@example.com
9175,Mevlana Cd,Bingöl,Giresun,Turkey,20574,-22.5794,-64.0575,-11:00,"Midway Island, Samoa",oya.kuday@example.com
5982,Theodosia Street,Taupo,Southland,New Zealand,82946,54.9550,109.9152,-10:00,Hawaii,phoebe.chen@example.com
1348,Præstevej,Beder,Hovedstaden,Denmark,11779,-81.8159,14.4958,-10:00,Hawaii,emma.christiansen@example.com
7850,Station Road,Durham,Dorset,United Kingdom,S74 3UY,48.7780,-86.9017,-3:00,"Brazil, Buenos Aires, Georgetown",don.wood@example.com
828,Dundas Rd,Sutton,Saskatchewan,Canada,L0H 2J1,74.5927,-121.6730,-9:00,Alaska,leanne.chow@example.com
3688,Kingsway,York,Merseyside,United Kingdom,N72 5UL,6.7578,87.3858,-4:00,"Atlantic Time (Canada), Caracas, La Paz",alex.allen@example.com
1247,St. Lawrence Ave,Wellington,British Columbia,Canada,C0B 1J8,51.7665,136.1618,+5:45,Kathmandu,james.park@example.com
3168,Rua Quinze de Novembro ,Bagé,Amapá,Brazil,49627,-24.8958,120.8220,+3:30,Tehran,vitor.silveira@example.com
7596,Calle de Alcalá,Las Palmas de Gran Canaria,Galicia,Spain,90286,-59.5240,-47.1755,+11:00,"Magadan, Solomon Islands, New Caledonia",gerardo.nieto@example.com
5636,Westmoreland Street,Ballinasloe,Waterford,Ireland,35177,-88.1121,69.0706,+6:00,"Almaty, Dhaka, Colombo",allie.craig@example.com
9882,Tulpenweg,Vacha,Bremen,Germany,21591,-17.5340,-49.6057,-3:00,"Brazil, Buenos Aires, Georgetown",ludmilla.seeliger@example.com
2007,20th Ave,Campbellton,Prince Edward Island,Canada,D5V 6D2,56.5720,-59.8583,-9:00,Alaska,ryder.williams@example.com
3274,Golfsvinget,Oure,Midtjylland,Denmark,88981,8.9317,160.4272,-1:00,"Azores, Cape Verde Islands",nicoline.pedersen@example.com
1084,Doktorlar Cd,Bilecik,Samsun,Turkey,92866,-25.9216,28.3213,-4:00,"Atlantic Time (Canada), Caracas, La Paz",emre.velioglu@example.com
5647,Fatih Sultan Mehmet Cd,Karaman,Tokat,Turkey,64116,-12.0292,-128.6718,0:00,"Western Europe Time, London, Lisbon, Casablanca",gul.limoncuoglu@example.com
6656,Avenue Debrousse,Obergösgen,Solothurn,Switzerland,7919,51.4174,-60.2366,+5:00,"Ekaterinburg, Islamabad, Karachi, Tashkent",matteo.garnier@example.com
9655,Filistin Cd,Muş,Burdur,Turkey,19285,70.6679,47.3261,-6:00,"Central Time (US & Canada), Mexico City",ahmet.gonultas@example.com
7548,Pecan Acres Ln,Bendigo,South Australia,Australia,1329,-45.4718,84.1313,+5:00,"Ekaterinburg, Islamabad, Karachi, Tashkent",walter.cole@example.com
563,Tunalı Hilmi Cd,Adıyaman,Isparta,Turkey,18333,-60.0016,-10.6449,+2:00,"Kaliningrad, South Africa",ege.ozgorkey@example.com
2773,Avenida Vinícius de Morais,Recife,Roraima,Brazil,74195,-21.0314,14.5233,+8:00,"Beijing, Perth, Singapore, Hong Kong",bia.ramos@example.com
5171,Uhlandstraße,Röttingen,Berlin,Germany,74189,-49.8320,99.3351,-8:00,Pacific Time (US & Canada),gloria.germann@example.com
6336,Harmen Sytstrasingel,Eyserheide,Drenthe,Netherlands,87246,28.9515,-126.0409,+9:00,"Tokyo, Seoul, Osaka, Sapporo, Yakutsk",berkan.schoonhoven@example.com
8866,Station Road,Portmarnock,Cork,Ireland,54477,81.2896,-44.8806,-5:00,"Eastern Time (US & Canada), Bogota, Lima",kelly.murphy@example.com
5119,Madras Street,Wellington,Gisborne,New Zealand,93349,-77.1067,138.2069,-9:00,Alaska,nina.li@example.com
8285,Tåstrupvej,Lemvig,Nordjylland,Denmark,98163,-72.7623,-3.4284,+9:30,"Adelaide, Darwin",jacob.olsen@example.com
8177,Daisy Dr,Ballarat,Victoria,Australia,8143,-7.7290,-116.1338,+10:00,"Eastern Australia, Guam, Vladivostok",courtney.barrett@example.com
4997,Rotuaari,Vantaa,Satakunta,Finland,52835,-23.6814,-64.0786,0:00,"Western Europe Time, London, Lisbon, Casablanca",nooa.waisanen@example.com
8730,Queen St,Wellington,British Columbia,Canada,P9I 2A0,28.6963,-13.9767,+9:00,"Tokyo, Seoul, Osaka, Sapporo, Yakutsk",logan.wong@example.com
2163,Rue Pierre-Delore,Billens-Hennens,Aargau,Switzerland,6962,70.7308,146.6977,+5:00,"Ekaterinburg, Islamabad, Karachi, Tashkent",josiane.muller@example.com
3707,Church Road,Peterborough,Borders,United Kingdom,M0 2PT,54.3125,-109.0557,-3:00,"Brazil, Buenos Aires, Georgetown",tom.king@example.com
4572,Rua Santa Luzia ,Várzea Paulista,Goiás,Brazil,35985,-3.5889,125.8123,-7:00,Mountain Time (US & Canada),claudine.goncalves@example.com
7900,ولیعصر / مصدق,تبریز,آذربایجان شرقی,Iran,66970,-42.6483,-106.9134,+1:00,"Brussels, Copenhagen, Madrid, Paris",hly.mrdy@example.com
1840,Bağdat Cd,Kilis,Amasya,Turkey,97620,2.4989,-124.0432,+7:00,"Bangkok, Hanoi, Jakarta",fatma.dusenkalkar@example.com
8592,Sunset St,Busselton,Northern Territory,Australia,6292,-7.7304,-73.6135,+8:00,"Beijing, Perth, Singapore, Hong Kong",alicia.garrett@example.com
9525,Rue Docteur-Bonhomme,Le Mans,Puy-de-Dôme,France,79859,68.7295,134.7836,-5:00,"Eastern Time (US & Canada), Bogota, Lima",enzo.garnier@example.com
9175,Wiesenweg,Bruchköbel,Niedersachsen,Germany,48485,11.7246,-50.2054,+1:00,"Brussels, Copenhagen, Madrid, Paris",tara.hasse@example.com
2027,Maçka Cd,Karabük,Gümüşhane,Turkey,89406,-45.7748,-95.4807,-6:00,"Central Time (US & Canada), Mexico City",baris.aclan@example.com
1298,Ranchview Dr,Kalgoorlie,Victoria,Australia,8276,65.9275,151.8557,+4:30,Kabul,mattie.smith@example.com
3400,St. John’S Road,Westminster,Merseyside,United Kingdom,P4Q 1XL,-59.1302,58.9267,+5:30,"Bombay, Calcutta, Madras, New Delhi",warren.perry@example.com
4370,Lovers Ln,Dubbo,Tasmania,Australia,7340,41.8739,-75.2874,-11:00,"Midway Island, Samoa",allison.vargas@example.com
5022,Grange Road,Youghal,Sligo,Ireland,79663,30.2025,-123.4887,+4:00,"Abu Dhabi, Muscat, Baku, Tbilisi",lauren.sullivan@example.com
9566,Bağdat Cd,Kilis,Sakarya,Turkey,50875,79.5421,150.0267,-3:00,"Brazil, Buenos Aires, Georgetown",nalan.aksit@example.com
2078,Brynjulf Bulls plass,Ausvika,Telemark,Norway,6391,82.7055,-6.5591,+6:00,"Almaty, Dhaka, Colombo",kathrine.antonsen@example.com
6979,Blossom Hill Rd,Perth,New South Wales,Australia,9364,-72.7700,-75.3702,+8:00,"Beijing, Perth, Singapore, Hong Kong",chad.white@example.com
8344,Alexander Road,Truro,Gwent,United Kingdom,L0 0AD,30.2117,2.3277,-11:00,"Midway Island, Samoa",erik.ward@example.com
2572,Eichenweg,Schlitz,Hessen,Germany,69342,-63.0114,-169.3475,+5:30,"Bombay, Calcutta, Madras, New Delhi",milka.goldbach@example.com
8099,22nd Ave,Cumberland,Northwest Territories,Canada,R7L 1Z2,66.6250,145.5636,+1:00,"Brussels, Copenhagen, Madrid, Paris",harper.belanger@example.com
3762,Lakeview St,Coffs Harbour,Australian Capital Territory,Australia,4861,-39.7066,-97.8255,-1:00,"Azores, Cape Verde Islands",lillie.williams@example.com
6979,Mühlenweg,Weikersheim,Saarland,Germany,32879,70.9083,28.3765,+3:30,Tehran,emil.alexander@example.com
447,Jahnstraße,Kolbermoor,Hessen,Germany,92541,-80.0211,-170.2752,-3:30,Newfoundland,karl-hans.diederichs@example.com
9928,Fincher Rd,Lancaster,Utah,United States,86917,79.6703,-29.1273,+5:45,Kathmandu,tonya.freeman@example.com
4423,Suvantokatu,Finström,Finland Proper,Finland,50524,-8.7726,-24.5620,-11:00,"Midway Island, Samoa",sara.salminen@example.com
5991,Ash Dr,Pompano Beach,Iowa,United States,50758,10.7770,61.0806,+3:00,"Baghdad, Riyadh, Moscow, St. Petersburg",amanda.payne@example.com
3554,Place de L'Église,Saxeten,Thurgau,Switzerland,6356,-64.8369,58.7347,-1:00,"Azores, Cape Verde Islands",soraya.roux@example.com
464,Quai Charles-De-Gaulle,Nanterre,Paris,France,76043,30.8825,93.4253,+4:30,Kabul,oceane.guillot@example.com
5215,Beco dos Namorados,Florianópolis,Santa Catarina,Brazil,41403,28.5097,-11.1236,+6:00,"Almaty, Dhaka, Colombo",carsta.darosa@example.com
4985,Rua Treze de Maio ,Araruama,Amazonas,Brazil,58047,46.6535,-59.5139,-8:00,Pacific Time (US & Canada),leonor.gomes@example.com
1673,Istiklal Cd,Aydın,Iğdır,Turkey,30412,88.2638,-9.2694,-6:00,"Central Time (US & Canada), Mexico City",kenan.evliyaoglu@example.com
1925,Mühlenweg,Schiltach,Thüringen,Germany,89702,-63.0365,-52.0473,+5:45,Kathmandu,solveig.arendt@example.com
3695,First Street,Mildura,Australian Capital Territory,Australia,5481,-39.1532,-173.2462,+9:00,"Tokyo, Seoul, Osaka, Sapporo, Yakutsk",laurie.newman@example.com
6444,Rua Duque de Caxias ,Porto Seguro,Mato Grosso,Brazil,36167,37.0760,-165.6223,-12:00,"Eniwetok, Kwajalein",ariel.pinto@example.com
4293,James St,Chandler,Nevada,United States,54070,85.9438,-82.6581,+5:45,Kathmandu,megan.hall@example.com
8396,Avenue Goerges Clémenceau,Biberstein,Basel-Stadt,Switzerland,5226,-40.7294,-23.5226,-5:00,"Eastern Time (US & Canada), Bogota, Lima",mona.bertrand@example.com
2539,Reijolankatu,Taipalsaari,Lapland,Finland,38542,-36.0308,-62.8084,+5:45,Kathmandu,eemil.ruona@example.com
7646,Calle Mota,Madrid,La Rioja,Spain,23540,-67.3952,-70.6368,+4:00,"Abu Dhabi, Muscat, Baku, Tbilisi",german.mora@example.com
1070,Hunters Creek Dr,Plano,Oklahoma,United States,69225,1.6921,10.9985,+6:00,"Almaty, Dhaka, Colombo",jeremy.morris@example.com
6473,Lindenweg,Glashütte,Brandenburg,Germany,58354,-53.8956,37.1024,-9:00,Alaska,franjo.reimer@example.com
1049,Smedegade,Gørløse,Sjælland,Denmark,98565,-0.6585,64.5948,-3:00,"Brazil, Buenos Aires, Georgetown",rasmus.larsen@example.com
984,College St,Queanbeyan,Victoria,Australia,2023,43.5647,-36.2405,+3:00,"Baghdad, Riyadh, Moscow, St. Petersburg",bobby.pierce@example.com
2799,Færøvej,Aaborg Øst,Syddanmark,Denmark,77089,48.0567,-94.1478,0:00,"Western Europe Time, London, Lisbon, Casablanca",adam.christiansen@example.com
9434,Park Avenue,Preston,West Sussex,United Kingdom,IC57 8DG,49.4388,-106.5141,-5:00,"Eastern Time (US & Canada), Bogota, Lima",tommy.vargas@example.com
4642,Beco dos Namorados,Cotia,Ceará,Brazil,44255,85.7922,93.8724,+3:00,"Baghdad, Riyadh, Moscow, St. Petersburg",cicera.barbosa@example.com
7991,Ullern Gårds vei,Østhusvik,Hedmark,Norway,8539,-47.9113,-131.3004,+9:30,"Adelaide, Darwin",adina.remen@example.com
5304,Ti Rakau Drive,Upper Hutt,Northland,New Zealand,38418,-62.4145,75.9950,+3:30,Tehran,hayley.harris@example.com
3390,شهید دکتر آیت,ملارد,آذربایجان شرقی,Iran,33749,8.6227,40.0512,+11:00,"Magadan, Solomon Islands, New Caledonia",sryn.nkwnzr@example.com
4502,Rua Paraíba ,Fortaleza,Mato Grosso,Brazil,30547,80.5650,-101.8710,+5:45,Kathmandu,manel.santos@example.com
582,Waldstraße,Crivitz,Hamburg,Germany,45784,30.6086,85.8528,+3:30,Tehran,hedwig.matheis@example.com
8556,Tara Street,Portlaoise,Longford,Ireland,84439,-86.4407,142.5797,+9:30,"Adelaide, Darwin",jen.mccoy@example.com
9772,Victoria Street,Leeds,Lincolnshire,United Kingdom,BC6D 5TB,-67.6766,-74.6836,-3:30,Newfoundland,sheryl.walters@example.com
1624,N Stelling Rd,St. Petersburg,Massachusetts,United States,87761,21.1891,169.1283,+9:00,"Tokyo, Seoul, Osaka, Sapporo, Yakutsk",lillie.brown@example.com
1734,Platanvej,Argerskov,Nordjylland,Denmark,52418,24.3996,36.9225,0:00,"Western Europe Time, London, Lisbon, Casablanca",sebastian.jensen@example.com
6552,Hauchs gate,Leknes,Oslo,Norway,2669,86.6387,-10.7221,-4:00,"Atlantic Time (Canada), Caracas, La Paz",nikoline.nyhus@example.com
5072,Lindevænget,Gjerlev,Syddanmark,Denmark,64096,32.4973,-167.9837,+6:00,"Almaty, Dhaka, Colombo",silje.nielsen@example.com
251,Talak Göktepe Cd,Gaziantep,Şırnak,Turkey,13931,-37.9469,99.9327,+11:00,"Magadan, Solomon Islands, New Caledonia",umut.tunaboylu@example.com
1,Kirchplatz,Coswig (Anhalt),Niedersachsen,Germany,49741,-70.3424,-150.2207,+11:00,"Magadan, Solomon Islands, New Caledonia",franka.lucas@example.com
7148,Louises gate,Jørpeland,Nordland,Norway,9483,-67.6952,-36.1314,-1:00,"Azores, Cape Verde Islands",ridwan.halland@example.com
5362,Lake of Bays Road,Tecumseh,New Brunswick,Canada,P4U 1H2,-42.8994,-73.2533,+5:30,"Bombay, Calcutta, Madras, New Delhi",leanne.lo@example.com
6967,Pearse Street,Ballina,Laois,Ireland,29943,59.1328,154.6079,-1:00,"Azores, Cape Verde Islands",samantha.baker@example.com
4867,Pine Rd,Grand Falls,Ontario,Canada,M8N 9F0,-78.9563,137.6586,+5:45,Kathmandu,xavier.ennis@example.com
1342,Rue Abel-Ferry,Caen,Tarn-et-Garonne,France,91460,51.3995,-160.6017,-10:00,Hawaii,axelle.gauthier@example.com
5665,Disputed Rd,Stirling,Ontario,Canada,O1W 3A0,72.7398,140.5237,-11:00,"Midway Island, Samoa",antoine.lavigne@example.com
9798,White Oak Dr,Kalgoorlie,Victoria,Australia,1447,34.2640,66.3196,+6:00,"Almaty, Dhaka, Colombo",soham.hart@example.com
134,Brammershoop,Oostzaan,Flevoland,Netherlands,71056,-60.4614,-169.4217,+8:00,"Beijing, Perth, Singapore, Hong Kong",yara.vanderwalle@example.com
2603,Westheimer Rd,Coffs Harbour,New South Wales,Australia,1094,-72.6842,-21.4903,+5:00,"Ekaterinburg, Islamabad, Karachi, Tashkent",raul.jennings@example.com
3803,Avenida da Democracia,Cuiabá,Mato Grosso,Brazil,48113,-50.9281,-71.7245,+7:00,"Bangkok, Hanoi, Jakarta",anastacia.silveira@example.com
3128,Ferguson Street,Dunedin,Otago,New Zealand,49392,25.6139,-168.8493,+4:00,"Abu Dhabi, Muscat, Baku, Tbilisi",maia.hall@example.com
5805,Paseo de Zorrilla,Murcia,Extremadura,Spain,48879,82.7868,58.0064,+2:00,"Kaliningrad, South Africa",raquel.mora@example.com
4770,Lovers Ln,Bendigo,Australian Capital Territory,Australia,7909,-88.1851,34.9946,+9:00,"Tokyo, Seoul, Osaka, Sapporo, Yakutsk",maurice.ellis@example.com
7610,School Lane,Brighton and Hove,Cornwall,United Kingdom,DP07 9QQ,-28.3223,-88.7718,+5:30,"Bombay, Calcutta, Madras, New Delhi",brad.diaz@example.com
6879,نام قدیم میدان های تهران,شهریار,کهگیلویه و بویراحمد,Iran,14977,11.1850,-31.6283,+4:00,"Abu Dhabi, Muscat, Baku, Tbilisi",prs.hmdy@example.com
6652,Talak Göktepe Cd,Kütahya,Van,Turkey,39793,72.0141,83.9768,+7:00,"Bangkok, Hanoi, Jakarta",onal.turkyilmaz@example.com
9329,Calle del Barquillo,San Sebastián,Extremadura,Spain,48075,-17.5652,-78.2505,+4:00,"Abu Dhabi, Muscat, Baku, Tbilisi",lourdes.herrero@example.com
2847,Hogenkampspassage,Zandberg Dr,Drenthe,Netherlands,29494,25.4612,-129.5482,-9:00,Alaska,belinda.tip@example.com
9513,Calle Nebrija,Guadalajara,Extremadura,Spain,24845,44.6204,36.4669,+5:00,"Ekaterinburg, Islamabad, Karachi, Tashkent",esther.vazquez@example.com
9311,Uhlandstraße,Markdorf,Baden-Württemberg,Germany,94228,58.6367,119.6028,-5:00,"Eastern Time (US & Canada), Bogota, Lima",ewa.blome@example.com
4011,3rd St,Wellington,Saskatchewan,Canada,F5S 4K2,34.1189,-104.8220,+8:00,"Beijing, Perth, Singapore, Hong Kong",tristan.miller@example.com
7260,Grove Road,York,Grampian,United Kingdom,DH3 6LE,57.1902,89.6745,-12:00,"Eniwetok, Kwajalein",julian.henry@example.com
3222,Tennent Drive,Masterton,Canterbury,New Zealand,12103,-52.5049,-164.2586,+1:00,"Brussels, Copenhagen, Madrid, Paris",maria.jackson@example.com
4513,Professor Lochmanns gate,Hjørungavåg,Troms - Romsa,Norway,6272,-48.4484,31.3795,+2:00,"Kaliningrad, South Africa",julianne.friberg@example.com
3994,Smokey Ln,Wagga Wagga,New South Wales,Australia,3583,-60.3562,-78.1720,+9:00,"Tokyo, Seoul, Osaka, Sapporo, Yakutsk",anne.weaver@example.com
6108,Frances Ct,Tweed,Victoria,Australia,548,60.3203,-157.2783,+8:00,"Beijing, Perth, Singapore, Hong Kong",zoe.webb@example.com
4325,Rua Rui Barbosa ,Canoas,Pernambuco,Brazil,84409,49.7688,-12.7617,+9:00,"Tokyo, Seoul, Osaka, Sapporo, Yakutsk",oceano.aragao@example.com
5058,Calle de Tetuán,Lorca,Galicia,Spain,66217,-63.8017,72.9793,-12:00,"Eniwetok, Kwajalein",anna.soto@example.com
4936,Şehitler Cd,Siirt,Uşak,Turkey,94075,-77.7664,128.9862,+11:00,"Magadan, Solomon Islands, New Caledonia",deniz.erbulak@example.com
5528,Simcoe St,Maidstone,Prince Edward Island,Canada,F9C 6X6,-64.6700,-108.6129,-6:00,"Central Time (US & Canada), Mexico City",florence.gagnon@example.com
9933,Fiskervej,Ryslinge,Syddanmark,Denmark,54829,-39.0040,-36.4427,+4:30,Kabul,sofie.andersen@example.com
5271,Industriestraße,Remscheid,Berlin,Germany,80842,2.1370,-8.2639,-1:00,"Azores, Cape Verde Islands",dan.sieber@example.com
5348,راستوان,خرم‌آباد,گیلان,Iran,43249,-7.7894,78.5128,+9:30,"Adelaide, Darwin",ln.njty@example.com
7791,Eason Rd,Launceston,Victoria,Australia,6750,-53.9451,60.5542,-3:00,"Brazil, Buenos Aires, Georgetown",kim.stephens@example.com
3944,Rua Carlos Gomes,Jequié,Espírito Santo,Brazil,51853,-23.9108,134.2262,+10:00,"Eastern Australia, Guam, Vladivostok",belina.rocha@example.com
3475,Lindeparken,Hornbæk,Hovedstaden,Denmark,33914,39.8310,50.7490,+5:45,Kathmandu,emily.sorensen@example.com
957,Avenue du Château,Rueil-Malmaison,Sarthe,France,45025,-69.7126,-32.8570,-5:00,"Eastern Time (US & Canada), Bogota, Lima",guillaume.rodriguez@example.com
2488,پارک 17 شهریور,اردبیل,سیستان و بلوچستان,Iran,41353,89.6216,39.6521,+4:30,Kabul,mlyn.sdr@example.com
2943,Dogwood Ave,Devonport,Northern Territory,Australia,2227,-73.7749,-102.5941,-12:00,"Eniwetok, Kwajalein",wyatt.ramirez@example.com
2858,Heiliggravenweg,Landerd,Groningen,Netherlands,10016,-30.2161,74.0207,-11:00,"Midway Island, Samoa",hillechiena.borsboom@example.com
4182,Rue Bossuet,Kemmental,Valais,Switzerland,3540,59.7042,-63.7904,+7:00,"Bangkok, Hanoi, Jakarta",corinna.garnier@example.com
6951,Springfield Road,Newry,Norfolk,United Kingdom,A15 3BN,47.2185,166.0309,-11:00,"Midway Island, Samoa",lance.pierce@example.com
3424,Tehtaankatu,Kauhajoki,South Karelia,Finland,67594,-41.7178,-143.2769,+5:45,Kathmandu,eeli.mattila@example.com
8655,Tunalı Hilmi Cd,Batman,Uşak,Turkey,67319,-56.3152,85.2601,+9:30,"Adelaide, Darwin",deniz.karaduman@example.com
4495,Achterbosch,Oost-Graftdijk,Flevoland,Netherlands,93588,-1.9940,-174.8440,+6:00,"Almaty, Dhaka, Colombo",imane.daalmeijer@example.com
9101,Rue D'Abbeville,Besançon,Martinique,France,72890,-72.1858,-141.4020,-1:00,"Azores, Cape Verde Islands",fanny.guillaume@example.com
400,Tahmelantie,Sysmä,Northern Savonia,Finland,50085,77.1503,19.2743,+9:30,"Adelaide, Darwin",sara.hautala@example.com
5868,Dublin Road,Blessington,Donegal,Ireland,15142,52.2009,135.3081,-6:00,"Central Time (US & Canada), Mexico City",debra.burton@example.com
4129,Avenida de Andalucía,Arrecife,Asturias,Spain,70523,72.0110,134.3952,-3:00,"Brazil, Buenos Aires, Georgetown",arturo.lorenzo@example.com
1221,Abanoz Sk,Muş,Antalya,Turkey,72263,23.9715,-12.7123,+7:00,"Bangkok, Hanoi, Jakarta",ulku.hakyemez@example.com
8208,Tunalı Hilmi Cd,Afyonkarahisar,Sivas,Turkey,44271,-77.9900,-88.9172,+6:00,"Almaty, Dhaka, Colombo",ege.keseroglu@example.com
2393,Nordenskiöldinkatu,Kirkkonummi,Kymenlaakso,Finland,13889,24.5106,-99.7642,-3:00,"Brazil, Buenos Aires, Georgetown",oliver.leinonen@example.com
8629,Bollinger Rd,Las Cruces,North Carolina,United States,75276,8.3828,146.4216,-3:00,"Brazil, Buenos Aires, Georgetown",wyatt.bates@example.com
4858,Holstebrovej,Hirtsals,Danmark,Denmark,40097,-64.3453,11.8410,+5:45,Kathmandu,felix.kristensen@example.com
4,Calle de La Luna,Torrevieja,Región de Murcia,Spain,79598,78.0976,24.2581,+3:00,"Baghdad, Riyadh, Moscow, St. Petersburg",andres.suarez@example.com
8611,شهید کامبیز خشی,ساری,اردبیل,Iran,78941,-11.4273,-68.4262,-3:00,"Brazil, Buenos Aires, Georgetown",lyn.mhmdkhn@example.com
8623,Dauwdruppelhof,Stad aan 't Haringvliet,Gelderland,Netherlands,28927,-31.0679,-45.6217,+8:00,"Beijing, Perth, Singapore, Hong Kong",jonathan.notten@example.com
5640,Hereford Street,Whangarei,Northland,New Zealand,81647,9.8224,116.6715,+5:45,Kathmandu,asher.robinson@example.com
4061,Avenue Joliot Curie,Rennes,Martinique,France,92864,-64.2441,6.2959,-4:00,"Atlantic Time (Canada), Caracas, La Paz",alyssia.lopez@example.com
125,Fincher Rd,Van Alstyne,Virginia,United States,27585,39.5994,103.4377,-8:00,Pacific Time (US & Canada),greg.morgan@example.com
4386,Fossumberget,Brumunddal,Møre og Romsdal,Norway,0777,81.2355,64.5921,-10:00,Hawaii,sturla.slette@example.com
2325,Frederick Ave,Greenwood,Nova Scotia,Canada,L1N 4G7,35.5796,113.9290,-11:00,"Midway Island, Samoa",victor.barnaby@example.com
4828,Avenue Vauban,Pohlern,Appenzell Ausserrhoden,Switzerland,6200,-27.9589,90.1268,-12:00,"Eniwetok, Kwajalein",ralph.chevalier@example.com
6194,کارگر شمالی,گلستان,خراسان جنوبی,Iran,47244,-11.3336,-9.1034,-6:00,"Central Time (US & Canada), Mexico City",aynz.sdr@example.com
3325,Hybenvænget,Lemvig,Hovedstaden,Denmark,18249,88.5471,142.8844,-9:00,Alaska,andrea.jorgensen@example.com
306,Richmond Park,Enniscorthy,Meath,Ireland,14007,-77.1063,-157.5194,-5:00,"Eastern Time (US & Canada), Bogota, Lima",louise.richards@example.com
1210,Place du 8 Novembre 1942,Montreuil,Ardèche,France,92749,-44.9372,-52.2315,-6:00,"Central Time (US & Canada), Mexico City",thibault.simon@example.com
5357,Frances Ct,Bernalillo,Massachusetts,United States,60364,-40.2251,-0.5787,-8:00,Pacific Time (US & Canada),hazel.garza@example.com
6405,Church Road,Kingston upon Hull,Nottinghamshire,United Kingdom,S4 5RP,46.7085,-175.6021,0:00,"Western Europe Time, London, Lisbon, Casablanca",ellen.lambert@example.com
1190,Nedre Kalbakkvei,Odda,Oslo,Norway,7884,24.5878,-102.6874,+3:30,Tehran,denis.langhelle@example.com
9720,Victoria Street,Cambridge,Cambridgeshire,United Kingdom,A97 5EY,-65.4711,32.5843,-9:00,Alaska,charlotte.cook@example.com
1919,Birkeparken,V.Skerninge,Hovedstaden,Denmark,24551,75.7959,-14.0960,+8:00,"Beijing, Perth, Singapore, Hong Kong",isabella.moller@example.com
3558,High Street,Edinburgh,Northumberland,United Kingdom,M6D 4DN,35.8747,155.9667,-6:00,"Central Time (US & Canada), Mexico City",kate.rodriguez@example.com
4178,Place du 8 Novembre 1942,Corminboeuf,Zug,Switzerland,8588,78.8467,57.0453,+5:00,"Ekaterinburg, Islamabad, Karachi, Tashkent",lara.lopez@example.com
3152,Ronda de Toledo,Vigo,Melilla,Spain,93900,-38.8120,29.1141,-9:00,Alaska,andrea.cortes@example.com
8642,Calle de Alcalá,Vitoria,Región de Murcia,Spain,15252,78.7877,74.3515,+11:00,"Magadan, Solomon Islands, New Caledonia",josefa.bravo@example.com
6348,It Skod,Veldhoven,Friesland,Netherlands,33392,41.3141,-91.2231,+5:30,"Bombay, Calcutta, Madras, New Delhi",tamar.schillemans@example.com
8246,Rue Denfert-Rochereau,Amiens,Val-D'Oise,France,58518,65.6900,29.0727,+4:00,"Abu Dhabi, Muscat, Baku, Tbilisi",ambre.clement@example.com
4299,The Strand,Hastings,Manawatu-Wanganui,New Zealand,90203,83.7839,81.8549,+10:00,"Eastern Australia, Guam, Vladivostok",imogen.roberts@example.com
2237,De Beek,Ouwster-Nijega,Zuid-Holland,Netherlands,63656,-17.1726,-44.5881,+9:00,"Tokyo, Seoul, Osaka, Sapporo, Yakutsk",abdulahi.nieuwenhuijs@example.com
2626,Frederick Ave,Springfield,Nova Scotia,Canada,E3N 6J5,-38.1003,-57.6306,-6:00,"Central Time (US & Canada), Mexico City",felix.clark@example.com
3189,Chadwick Road,Tauranga,Tasman,New Zealand,54884,13.9151,-151.2267,-7:00,Mountain Time (US & Canada),ava.anderson@example.com
3106,شهید آرش مهر,ایلام,هرمزگان,Iran,43602,-13.1311,150.1677,+4:00,"Abu Dhabi, Muscat, Baku, Tbilisi",th.khwty@example.com
7043,Rectory Lane,Derby,Warwickshire,United Kingdom,TW0M 3DU,-40.2025,97.6674,+9:00,"Tokyo, Seoul, Osaka, Sapporo, Yakutsk",grace.montgomery@example.com
8791,Rue de L'Abbé-Grégoire,Avignon,Loir-et-Cher,France,17985,-44.6241,168.4459,-2:00,Mid-Atlantic,noah.perrin@example.com
964,Stafford Street,Invercargill,Auckland,New Zealand,54539,-69.8220,-17.9038,-8:00,Pacific Time (US & Canada),elizabeth.turner@example.com
6885,Calle de Arganzuela,Alcalá de Henares,Cataluña,Spain,34986,84.5872,-98.0927,-8:00,Pacific Time (US & Canada),mariano.marquez@example.com
6417,Rua Dezesseis de Maio,Conselheiro Lafaiete,Goiás,Brazil,58108,-28.0901,-175.5764,-3:00,"Brazil, Buenos Aires, Georgetown",etiene.pinto@example.com
8298,Fitzgerald Avenue,Taupo,Bay of Plenty,New Zealand,94152,46.2836,-98.7873,0:00,"Western Europe Time, London, Lisbon, Casablanca",lucas.taylor@example.com
5362,Rue des Chartreux,Sonogno,Solothurn,Switzerland,5634,83.7220,-122.3753,-6:00,"Central Time (US & Canada), Mexico City",dirk.girard@example.com
250,Rue André-Gide,Lyon,Loire-Atlantique,France,61785,-40.5720,51.9798,+3:00,"Baghdad, Riyadh, Moscow, St. Petersburg",morgan.durand@example.com
6090,Windsor Road,Exeter,Kent,United Kingdom,MG4 4HL,-31.5997,-103.4571,+4:30,Kabul,francisco.schmidt@example.com
5145,Rua Treze de Maio ,Canoas,Pernambuco,Brazil,82049,-42.3892,-12.0941,-9:00,Alaska,aquiles.monteiro@example.com
3792,Concession Road 6,Minto,Northwest Territories,Canada,T2S 3R7,7.5469,19.4986,+10:00,"Eastern Australia, Guam, Vladivostok",julia.morin@example.com
6482,Rue Principale,Metz,Marne,France,68740,-49.1744,153.6571,+5:30,"Bombay, Calcutta, Madras, New Delhi",adrien.brunet@example.com
226,Fougners vei,Opphaug,Nordland,Norway,9531,53.1914,142.3426,-5:00,"Eastern Time (US & Canada), Bogota, Lima",iselin.bergan@example.com
3605,Miller Ave,Queanbeyan,New South Wales,Australia,981,61.8607,-75.3305,+2:00,"Kaliningrad, South Africa",jean.carlson@example.com
3987,Paseo de Zorrilla,Torrejón de Ardoz,Canarias,Spain,57669,54.3184,116.7206,+11:00,"Magadan, Solomon Islands, New Caledonia",paula.arias@example.com
3502,Håndværkervej,Klitmøller,Sjælland,Denmark,81378,7.0160,-146.1142,-4:00,"Atlantic Time (Canada), Caracas, La Paz",sofie.nielsen@example.com
5299,Bård Skolemesters vei,Hauge,Oslo,Norway,2337,89.1122,-62.4104,-8:00,Pacific Time (US & Canada),mari.storheim@example.com
6474,Grafton Street,Carlow,Westmeath,Ireland,59685,-81.8365,54.8319,+2:00,"Kaliningrad, South Africa",louis.perkins@example.com
8371,Dalhousie Ave,Springfield,British Columbia,Canada,P5J 9J4,4.9911,107.0111,-8:00,Pacific Time (US & Canada),emily.patel@example.com
1202,Anafartalar Cd,Amasya,Yalova,Turkey,56282,45.4923,73.1924,-3:30,Newfoundland,buse.abanuz@example.com
9680,Te Atatu Road,Lower Hutt,Hawke'S Bay,New Zealand,75467,-63.3246,-35.5652,0:00,"Western Europe Time, London, Lisbon, Casablanca",xavier.martin@example.com
5860,Lovers Ln,Gainesville,Nevada,United States,45268,-25.0855,-66.5119,+4:00,"Abu Dhabi, Muscat, Baku, Tbilisi",julian.fernandez@example.com
9780,Poplar Dr,Louisville,Missouri,United States,77890,50.6444,-45.7535,+4:30,Kabul,margie.flores@example.com
9117,Højbovej,Rødvig Stevns,Hovedstaden,Denmark,86975,50.8847,-79.0174,+10:00,"Eastern Australia, Guam, Vladivostok",bertram.olsen@example.com
2712,Park Lane,Westminster,Northamptonshire,United Kingdom,MV01 3YX,76.1805,5.9354,-1:00,"Azores, Cape Verde Islands",claude.dixon@example.com
6807,Kragstubben,Fjell,Nord-Trøndelag,Norway,3010,-62.1244,159.1346,-3:30,Newfoundland,jessica.opgard@example.com
4351,York Road,Ballinasloe,Kerry,Ireland,87892,-32.1702,59.7505,+3:00,"Baghdad, Riyadh, Moscow, St. Petersburg",isaiah.kelley@example.com
6711,Rua São José ,Canoas,Ceará,Brazil,99698,-68.5836,76.6356,+3:00,"Baghdad, Riyadh, Moscow, St. Petersburg",janardo.dacunha@example.com
6816,Rautatienkatu,Hämeenlinna,Ostrobothnia,Finland,31607,81.5710,68.6161,-3:30,Newfoundland,iiris.laitinen@example.com
9117,Rua São José ,Blumenau,Mato Grosso do Sul,Brazil,83552,69.9404,-131.6952,+10:00,"Eastern Australia, Guam, Vladivostok",hilda.araujo@example.com
1441,Talak Göktepe Cd,Edirne,Van,Turkey,56803,80.8180,100.6781,+11:00,"Magadan, Solomon Islands, New Caledonia",onal.ozansoy@example.com
1077,Calle de Arturo Soria,Málaga,Navarra,Spain,68072,-48.7680,-124.4465,+11:00,"Magadan, Solomon Islands, New Caledonia",sandra.serrano@example.com
355,Ahornweg,Halver,Nordrhein-Westfalen,Germany,93028,-33.1114,-68.3795,+9:00,"Tokyo, Seoul, Osaka, Sapporo, Yakutsk",luciano.kempf@example.com
6927,The Avenue,Manchester,Borders,United Kingdom,E13 4WL,67.0406,-31.6534,0:00,"Western Europe Time, London, Lisbon, Casablanca",linda.wilson@example.com
2962,آذربایجان,آبادان,گیلان,Iran,37941,-54.0895,29.7358,-4:00,"Atlantic Time (Canada), Caracas, La Paz",adryn.sdr@example.com
1558,Fahrenheitstraat,Lievelde,Utrecht,Netherlands,34529,49.1478,-11.3116,-10:00,Hawaii,naciye.trommelen@example.com
7980,Ranchview Dr,Lansing,Louisiana,United States,16730,-36.0453,-31.2485,-5:00,"Eastern Time (US & Canada), Bogota, Lima",joanne.morris@example.com
1906,امام خمینی,کاشان,قزوین,Iran,48813,29.8927,-32.2152,-10:00,Hawaii,mhn.kmyrn@example.com
7210,Egevej,København V,Midtjylland,Denmark,13286,-40.2632,-171.4578,-5:00,"Eastern Time (US & Canada), Bogota, Lima",nikolaj.petersen@example.com
2563,Esmonde Road,Christchurch,Bay of Plenty,New Zealand,90002,89.1409,26.5837,-12:00,"Eniwetok, Kwajalein",jasmine.taylor@example.com
3968,Domain Road,Dunedin,Canterbury,New Zealand,58301,-54.1884,-122.0278,-10:00,Hawaii,isla.morris@example.com
1897,شهید مطهری,گلستان,سیستان و بلوچستان,Iran,69338,-77.2453,-87.7533,-3:00,"Brazil, Buenos Aires, Georgetown",mny.rdyyn@example.com
8452,West Street,Ripon,Derbyshire,United Kingdom,NO6 1TJ,-5.7015,-30.7879,0:00,"Western Europe Time, London, Lisbon, Casablanca",heather.gomez@example.com
3116,Galway Road,Tramore,Waterford,Ireland,77382,33.8358,47.5646,-7:00,Mountain Time (US & Canada),jessie.james@example.com
5386,Grove Road,Auckland,Northland,New Zealand,35494,58.8784,-3.8257,+9:00,"Tokyo, Seoul, Osaka, Sapporo, Yakutsk",stella.turner@example.com
207,جلال آل احمد,زاهدان,خراسان رضوی,Iran,27309,68.1301,-92.6472,+6:00,"Almaty, Dhaka, Colombo",aalyrd.ysmy@example.com
6955,Hämeenkatu,Hartola,Finland Proper,Finland,72639,-53.9072,174.5725,-4:00,"Atlantic Time (Canada), Caracas, La Paz",alisa.jokela@example.com
6205,Springfield Road,Sligo,Cavan,Ireland,68544,18.5932,167.9897,-10:00,Hawaii,lucas.byrd@example.com
2067,Åkandevej,Lemvig,Sjælland,Denmark,51419,-85.3633,54.0338,+2:00,"Kaliningrad, South Africa",asta.olsen@example.com
1901,Smålensgata,Raufoss,Sør-Trøndelag,Norway,6802,87.6225,102.8254,+4:30,Kabul,freja.presthus@example.com
9003,O'Connell Street,Oranmore,Cork,Ireland,73528,-0.1290,-162.7284,+11:00,"Magadan, Solomon Islands, New Caledonia",tammy.hicks@example.com
9314,Talstraße,Gotha,Sachsen,Germany,29069,15.6742,-147.4353,+9:00,"Tokyo, Seoul, Osaka, Sapporo, Yakutsk",milan.bacher@example.com
5273,Bulevardi,Oulunsalo,Satakunta,Finland,11597,-78.5083,82.6165,+10:00,"Eastern Australia, Guam, Vladivostok",luukas.kyllonen@example.com
9469,Grenåvej,Gjern,Sjælland,Denmark,31443,57.8074,156.7466,+5:00,"Ekaterinburg, Islamabad, Karachi, Tashkent",naja.jensen@example.com
9098,Lerchenweg,Kroppenstedt,Schleswig-Holstein,Germany,96288,21.3955,85.6713,+11:00,"Magadan, Solomon Islands, New Caledonia",sedat.hendricks@example.com
5188,Calle de La Democracia,Ferrol,Canarias,Spain,97601,-41.9868,71.1864,-3:00,"Brazil, Buenos Aires, Georgetown",monica.leon@example.com
4992,دماوند,ساری,آذربایجان شرقی,Iran,99071,48.5629,-47.9047,+9:00,"Tokyo, Seoul, Osaka, Sapporo, Yakutsk",thn.hmdy@example.com
6163,Rua Pará ,Guarulhos,São Paulo,Brazil,79640,-82.1361,172.2580,+1:00,"Brussels, Copenhagen, Madrid, Paris",zoica.silveira@example.com
8311,Lone Wolf Trail,Pasadena,Georgia,United States,64890,-27.6871,-80.0006,0:00,"Western Europe Time, London, Lisbon, Casablanca",lewis.lambert@example.com
3254,Dundas Rd,Campbellton,Nova Scotia,Canada,S6Z 3R8,78.4885,171.5193,-11:00,"Midway Island, Samoa",leanne.ennis@example.com
7395,New Street,Edenderry,Louth,Ireland,40312,-63.8193,-62.4591,-4:00,"Atlantic Time (Canada), Caracas, La Paz",tyler.watkins@example.com
5636,James St,Everett,Wyoming,United States,36803,69.0178,-87.8530,0:00,"Western Europe Time, London, Lisbon, Casablanca",bradley.davidson@example.com
4501,St. Catherine St,Lasalle,Québec,Canada,C3R 3H2,75.6821,118.6474,+5:00,"Ekaterinburg, Islamabad, Karachi, Tashkent",ethan.pelletier@example.com
6292,Panama Road,Masterton,Waikato,New Zealand,36581,24.3142,47.6579,-6:00,"Central Time (US & Canada), Mexico City",molly.martin@example.com
4159,Anafartalar Cd,Gaziantep,Adıyaman,Turkey,50346,-20.8488,56.4200,-3:30,Newfoundland,esat.turkyilmaz@example.com
13,Route de Genas,Rennes,Vienne,France,24970,63.7772,172.2843,-8:00,Pacific Time (US & Canada),manon.mathieu@example.com
3242,Korsvollbråtan,Høylandet,Aust-Agder,Norway,6076,-8.3668,166.4850,+7:00,"Bangkok, Hanoi, Jakarta",charlie.ressem@example.com
8393,Rue Chazière,Rennes,Allier,France,84331,-70.4305,0.0981,+7:00,"Bangkok, Hanoi, Jakarta",eliott.legrand@example.com
7635,Şehitler Cd,Samsun,Muş,Turkey,25524,39.3185,-160.2488,-5:00,"Eastern Time (US & Canada), Bogota, Lima",ulku.ozbey@example.com
5422,شهید گلپایگانی,بندرعباس,بوشهر,Iran,79223,-41.8010,15.9592,+9:00,"Tokyo, Seoul, Osaka, Sapporo, Yakutsk",armyn.jaafry@example.com
5695,Wheeler Ridge Dr,Columbus,Maine,United States,85746,-6.3320,-134.1552,+9:00,"Tokyo, Seoul, Osaka, Sapporo, Yakutsk",annie.silva@example.com
1837,Herman Foss' gate,Hoffland,Trøndelag,Norway,5865,22.0726,149.3562,+5:00,"Ekaterinburg, Islamabad, Karachi, Tashkent",andrea.hegg@example.com
9590,Brock Rd,Souris,Ontario,Canada,I4S 1A4,40.9747,-19.5468,-6:00,"Central Time (US & Canada), Mexico City",jacob.sirko@example.com
4132,Ormond Quay,Carrigaline,Galway,Ireland,36803,-62.8440,130.3916,-9:00,Alaska,elliot.brown@example.com
4398,Amund Hellands vei,Stranda,Vestfold,Norway,0494,-65.2420,119.1788,-10:00,Hawaii,eivind.rongved@example.com
572,Stendyssevej,Aalborg S.Ø.,Hovedstaden,Denmark,33373,33.8701,-59.1664,+9:30,"Adelaide, Darwin",victoria.nielsen@example.com
8815,Hereford Street,Whanganui,Gisborne,New Zealand,89938,25.1338,175.3041,+11:00,"Magadan, Solomon Islands, New Caledonia",louis.king@example.com
4424,جمال الدین اسدآبادی,اهواز,سیستان و بلوچستان,Iran,23350,-3.0482,-55.2175,-4:00,"Atlantic Time (Canada), Caracas, La Paz",aabs.aalyzdh@example.com
7824,Amselweg,Neckargemünd,Thüringen,Germany,89376,-48.9923,-47.1557,+5:45,Kathmandu,fadime.kiel@example.com
6598,Crockett St,Warren,North Carolina,United States,72328,80.2981,-171.6187,-5:00,"Eastern Time (US & Canada), Bogota, Lima",ritthy.alvarez@example.com
6622,Robinson Rd,Wagga Wagga,Queensland,Australia,8672,-71.1816,-112.4603,+9:00,"Tokyo, Seoul, Osaka, Sapporo, Yakutsk",gordon.webb@example.com
5151,St. John’S Road,Edinburgh,East Sussex,United Kingdom,UR88 6ZE,-16.9783,144.6015,+3:30,Tehran,jenny.wood@example.com
4858,سپهبد قرنی,رشت,یزد,Iran,98645,49.7182,-123.6696,-7:00,Mountain Time (US & Canada),mhdy.jaafry@example.com
7600,Windsor Road,Belfast,Fife,United Kingdom,HA05 8HE,-13.7342,-68.0534,+10:00,"Eastern Australia, Guam, Vladivostok",brett.holmes@example.com
3945,جمهوری اسلامی,سبزوار,یزد,Iran,33649,-89.9233,-135.4340,-7:00,Mountain Time (US & Canada),ftmh.glshn@example.com
7697,Dovresvingen,Moane,Nord-Trøndelag,Norway,6063,77.8433,-170.5148,-12:00,"Eniwetok, Kwajalein",muna.netland@example.com
2085,W Campbell Ave,Forney,Colorado,United States,51988,3.3679,-164.6686,0:00,"Western Europe Time, London, Lisbon, Casablanca",eleanor.jimenez@example.com
1364,W Pecan St,Overland Park,Louisiana,United States,85176,80.7736,16.1737,-6:00,"Central Time (US & Canada), Mexico City",alfredo.shelton@example.com
2914,Rue Denfert-Rochereau,Vallorbe,Luzern,Switzerland,6050,50.7488,132.9242,-3:30,Newfoundland,anina.robert@example.com
7398,Rua Treze de Maio ,Jaú,Alagoas,Brazil,41520,-77.9928,-47.3145,+7:00,"Bangkok, Hanoi, Jakarta",delia.dias@example.com
7442,Quai Chauveau,Colombes,Allier,France,57014,-68.3736,-6.6274,-9:00,Alaska,estelle.deschamps@example.com
9238,Grange Road,Truro,Staffordshire,United Kingdom,FY8M 5RU,81.2483,145.0716,+6:00,"Almaty, Dhaka, Colombo",maddison.howell@example.com
9717,Brick Kiln Road,Oxford,Essex,United Kingdom,P1 3YE,24.7943,16.1476,+4:00,"Abu Dhabi, Muscat, Baku, Tbilisi",darrell.bates@example.com
9042,E Pecan St,Grand Prairie,Illinois,United States,94220,64.8490,50.1318,-3:30,Newfoundland,amber.nelson@example.com
3710,W Belt Line Rd,Seagoville,Idaho,United States,61495,-26.3959,-112.6417,+9:30,"Adelaide, Darwin",jim.fields@example.com
2457,Myllypuronkatu,Hervanta,Finland Proper,Finland,83760,-2.8316,-26.6438,+4:00,"Abu Dhabi, Muscat, Baku, Tbilisi",rasmus.takala@example.com
19,Stenersgata,Sulitjelma,Description,Norway,7239,-39.5025,121.7134,+4:00,"Abu Dhabi, Muscat, Baku, Tbilisi",ahmed.sjovold@example.com
6598,Lovers Ln,Sydney,New South Wales,Australia,4951,29.4236,-115.8972,-11:00,"Midway Island, Samoa",jo.marshall@example.com
4971,Bulevardi,Kempele,Kymenlaakso,Finland,11546,-69.4817,-93.8868,-3:30,Newfoundland,konsta.heino@example.com
6167,Rue de L'Abbé-Roger-Derry,Brest,Meurthe-et-Moselle,France,88024,18.9606,-31.0338,+3:00,"Baghdad, Riyadh, Moscow, St. Petersburg",coline.martinez@example.com
9898,Calle de La Almudena,Toledo,Castilla y León,Spain,64532,-7.0051,-156.5428,-6:00,"Central Time (US & Canada), Mexico City",hugo.hernandez@example.com
5807,Avenue Tony-Garnier,Santa Maria In Calanca,Genève,Switzerland,7005,65.8496,158.1010,-8:00,Pacific Time (US & Canada),ahmad.berger@example.com
8817,Søndervang,Hornbæk,Hovedstaden,Denmark,99147,-37.0250,110.4440,+5:00,"Ekaterinburg, Islamabad, Karachi, Tashkent",filippa.kristensen@example.com
9844,Rua Boa Vista ,Apucarana,Piauí,Brazil,84899,-23.0160,131.6699,+11:00,"Magadan, Solomon Islands, New Caledonia",francisca.dacunha@example.com
2051,Avenida de Castilla,Gijón,Canarias,Spain,35329,-61.3600,7.8245,+3:30,Tehran,adriana.carrasco@example.com
4236,Tahmelantie,Sulkava,Northern Ostrobothnia,Finland,77589,27.3655,129.2446,+11:00,"Magadan, Solomon Islands, New Caledonia",ilona.saari@example.com
9098,Manchester Road,Liverpool,Worcestershire,United Kingdom,PI94 5UG,-71.8037,113.7508,-9:00,Alaska,sebastian.daniels@example.com
7157,Istiklal Cd,Batman,Van,Turkey,73107,41.7833,-163.9142,-7:00,Mountain Time (US & Canada),deniz.ozdenak@example.com
3138,Daisy Dr,Wagga Wagga,Western Australia,Australia,6572,86.8864,-121.9566,-9:00,Alaska,ella.ford@example.com
1045,Rue Pasteur,Chéserex,Aargau,Switzerland,9107,-67.1032,11.7495,+2:00,"Kaliningrad, South Africa",andrew.roussel@example.com
8288,Grand Ave,Lafontaine,Québec,Canada,Y2K 5Q0,87.5050,-2.3159,+5:00,"Ekaterinburg, Islamabad, Karachi, Tashkent",florence.fortin@example.com
192,Calle de Alcalá,Las Palmas de Gran Canaria,Castilla la Mancha,Spain,23274,-45.2906,33.9624,-3:30,Newfoundland,angeles.leon@example.com
8013,Church Street,Athy,Leitrim,Ireland,64602,0.5796,-95.7926,0:00,"Western Europe Time, London, Lisbon, Casablanca",dwayne.mckinney@example.com
8420,Elliot Street,Porirua,Waikato,New Zealand,98607,88.8023,-112.2842,-10:00,Hawaii,toby.zhang@example.com
7848,Rua Pernambuco ,Ananindeua,Mato Grosso,Brazil,22934,-74.9439,-94.3337,+9:00,"Tokyo, Seoul, Osaka, Sapporo, Yakutsk",seleso.jesus@example.com
6452,Grejsdalsvej,Viby Sj.,Nordjylland,Denmark,26463,36.3543,113.1054,-6:00,"Central Time (US & Canada), Mexico City",mads.olsen@example.com
3159,امام خمینی,اصفهان,کرمان,Iran,41973,-58.1765,-22.7162,0:00,"Western Europe Time, London, Lisbon, Casablanca",brn.khwty@example.com
9872,Rue des Cuirassiers,Perpignan,Seine-et-Marne,France,56216,15.1621,-50.5110,+9:30,"Adelaide, Darwin",thibaut.lopez@example.com
4699,Rue Denfert-Rochereau,Berg (Tg),Vaud,Switzerland,6445,85.4418,-158.9960,-11:00,"Midway Island, Samoa",bruno.lefevre@example.com
7664,York Road,Balbriggan,Leitrim,Ireland,31062,-42.4519,43.5412,+4:00,"Abu Dhabi, Muscat, Baku, Tbilisi",chad.hall@example.com
8445,Tahmelantie,Puolanka,Pirkanmaa,Finland,24699,-47.9079,87.2238,+5:30,"Bombay, Calcutta, Madras, New Delhi",iina.salonen@example.com
1163,Wiesenweg,Wolfstein,Sachsen-Anhalt,Germany,76948,-76.9085,-161.0369,0:00,"Western Europe Time, London, Lisbon, Casablanca",gerlind.lindemann@example.com
4606,شهید آقاسرمدیان,آمل,هرمزگان,Iran,44397,-22.2691,-126.7759,+11:00,"Magadan, Solomon Islands, New Caledonia",khwrwsh.slry@example.com
2454,میدان شهید نامجو,پاکدشت,ایلام,Iran,16555,28.3420,-90.4419,-3:00,"Brazil, Buenos Aires, Georgetown",nznyn.hsyny@example.com
6241,Rua João Xxiii,Canoas,Piauí,Brazil,94379,-68.3244,-66.2912,-11:00,"Midway Island, Samoa",nicete.rodrigues@example.com
8641,Rue Paul Bert,Clermont-Ferrand,Ardèche,France,22493,5.2715,-67.8401,-10:00,Hawaii,thais.nicolas@example.com
8074,Main St,Flatrock,British Columbia,Canada,A5P 6K9,33.8092,-17.0415,-11:00,"Midway Island, Samoa",aubrey.harcourt@example.com
4801,Rue Victor-Hugo,Versailles,Ariège,France,48664,-35.0190,-78.3201,+3:30,Tehran,fanny.martin@example.com
3807,Frederick Ave,Trout Lake,Nova Scotia,Canada,B5C 4C7,16.6475,-26.3989,+9:00,"Tokyo, Seoul, Osaka, Sapporo, Yakutsk",carter.jean-baptiste@example.com
191,W Pecan St,Warragul,Australian Capital Territory,Australia,3804,-60.5945,152.6733,+3:30,Tehran,tracy.barnes@example.com
190,Blauwemeer,Andelst,Utrecht,Netherlands,22942,26.1047,0.1532,+6:00,"Almaty, Dhaka, Colombo",zaza.vriends@example.com
5439,Vatan Cd,Afyonkarahisar,Burdur,Turkey,23306,3.9549,22.7249,+1:00,"Brussels, Copenhagen, Madrid, Paris",ozsu.durmaz@example.com
2111,W Dallas St,Minneapolis,New Mexico,United States,33794,25.3765,128.6136,-7:00,Mountain Time (US & Canada),megan.howard@example.com
6626,Daisy Dr,Maitland,Victoria,Australia,9209,-56.7774,-4.5994,+6:00,"Almaty, Dhaka, Colombo",karl.morales@example.com
8514,Avenue de la République,Fürstenau,Uri,Switzerland,6805,87.0282,112.5085,-12:00,"Eniwetok, Kwajalein",anabela.renaud@example.com
515,Rautatienkatu,Lahti,Southern Savonia,Finland,71029,74.7036,-85.1563,-8:00,Pacific Time (US & Canada),ronja.elo@example.com
4721,Kirchgasse,Fulda,Niedersachsen,Germany,76660,-2.9168,45.4528,+3:00,"Baghdad, Riyadh, Moscow, St. Petersburg",hans-detlef.moser@example.com
3354,Pecan Acres Ln,North Las Vegas,South Carolina,United States,21939,-85.3516,77.6554,-5:00,"Eastern Time (US & Canada), Bogota, Lima",melvin.king@example.com
9321,Place du 8 Février 1962,Alpnach,Basel-Landschaft,Switzerland,7325,34.4219,119.1998,+5:30,"Bombay, Calcutta, Madras, New Delhi",yves.robert@example.com
1248,Karen Dr,West Valley City,New Mexico,United States,80689,-66.5379,41.5945,-7:00,Mountain Time (US & Canada),judy.montgomery@example.com
8282,Miller Ave,Tamworth,Northern Territory,Australia,5824,11.7157,-131.7018,-3:00,"Brazil, Buenos Aires, Georgetown",terrence.walters@example.com
5844,Homestead Rd,Darwin,Northern Territory,Australia,435,-8.2270,-19.6575,-8:00,Pacific Time (US & Canada),leslie.cox@example.com
9558,York Road,Southampton,South Yorkshire,United Kingdom,DV48 4JW,35.9884,-64.2902,+3:00,"Baghdad, Riyadh, Moscow, St. Petersburg",logan.thomas@example.com
4251,Place de la Mairie,Zihlschlacht-Sitterdorf,Luzern,Switzerland,4115,72.2675,-92.7174,+5:45,Kathmandu,camille.nicolas@example.com
3496,Rue Louis-Blanqui,Amiens,Haut-Rhin,France,31313,-49.0643,121.9191,+5:45,Kathmandu,pierre.brunet@example.com
6728,Mannerheimintie,Alajärvi,Southern Savonia,Finland,25862,-76.5500,145.3752,+6:00,"Almaty, Dhaka, Colombo",emil.koskinen@example.com
6004,Bağdat Cd,Bilecik,Uşak,Turkey,84320,88.1316,-114.0778,+9:00,"Tokyo, Seoul, Osaka, Sapporo, Yakutsk",deniz.eronat@example.com
3582,Cambridge Terrace,Hastings,Hawke'S Bay,New Zealand,30838,-33.5555,85.2838,-6:00,"Central Time (US & Canada), Mexico City",ezra.king@example.com
6476,Rua Vinte E Quatro de Outubro,Cariacica,Maranhão,Brazil,50982,-33.1857,-98.5893,-9:00,Alaska,rudinele.darosa@example.com
4038,Ansjovisweg,Ede Gld,Flevoland,Netherlands,75433,-68.3244,108.0306,-5:00,"Eastern Time (US & Canada), Bogota, Lima",romaisae.vandenadel@example.com
5171,Richmond Ave,Chelsea,Prince Edward Island,Canada,Q5W 3N0,3.2889,152.8426,+4:00,"Abu Dhabi, Muscat, Baku, Tbilisi",jayden.ambrose@example.com
1779,Broadway,Durham,Avon,United Kingdom,L2 0UW,-29.8042,31.1648,0:00,"Western Europe Time, London, Lisbon, Casablanca",philip.morgan@example.com
2288,Parliament St,Lloydminster,Yukon,Canada,U7Q 1C1,-0.8592,176.9413,+5:00,"Ekaterinburg, Islamabad, Karachi, Tashkent",addison.french@example.com
5825,Reijolankatu,Ii,Pirkanmaa,Finland,14398,33.7985,24.8342,-9:00,Alaska,valtteri.tervo@example.com
9384,Bahnhofstraße,Wolfach,Brandenburg,Germany,65399,71.7870,69.6019,+8:00,"Beijing, Perth, Singapore, Hong Kong",ingbert.goldschmidt@example.com
609,Hvidovrevej,Noerre Alslev,Hovedstaden,Denmark,71344,-16.3454,-11.7371,-8:00,Pacific Time (US & Canada),valdemar.christiansen@example.com
1039,Delebekken,Vatne,Finnmark - Finnmárku,Norway,8178,28.3061,-99.5685,-2:00,Mid-Atlantic,thor.flatland@example.com
7719,Coastal Highway,Winfield,Yukon,Canada,J7X 7A1,57.9231,23.9965,+10:00,"Eastern Australia, Guam, Vladivostok",brielle.bouchard@example.com
1124,Highfield Road,Kilcock,Louth,Ireland,84567,-79.9807,31.2814,-2:00,Mid-Atlantic,liam.douglas@example.com
5772,Cherry St,Sydney,Queensland,Australia,7047,27.5773,77.0381,+3:00,"Baghdad, Riyadh, Moscow, St. Petersburg",georgia.schmidt@example.com
1416,Forest Ln,Sunshine Coast,South Australia,Australia,8224,61.8791,-109.0510,-10:00,Hawaii,michael.kuhn@example.com
1221,Rua Dois,Cotia,Alagoas,Brazil,50812,-72.3616,-102.8160,+4:30,Kabul,andresa.rezende@example.com
2021,Ormond Quay,Clonakilty,Wexford,Ireland,49335,-44.1096,-35.0297,+1:00,"Brussels, Copenhagen, Madrid, Paris",enrique.day@example.com
5476,Kanalvej,Roslev,Midtjylland,Denmark,98750,44.5243,161.8600,+5:30,"Bombay, Calcutta, Madras, New Delhi",nicoline.mortensen@example.com
1797,Dufferin St,Borden,Alberta,Canada,W6Y 5R9,51.6727,-100.1386,+4:00,"Abu Dhabi, Muscat, Baku, Tbilisi",camille.bouchard@example.com
6392,Hanestreek,Zevenhoven,Drenthe,Netherlands,51025,20.4811,89.5064,-5:00,"Eastern Time (US & Canada), Bogota, Lima",kendra.holtslag@example.com
4795,Calle de Téllez,Vigo,Melilla,Spain,17958,-2.6955,19.6895,+5:30,"Bombay, Calcutta, Madras, New Delhi",angel.molina@example.com
1034,Grafton Street,Greystones,Meath,Ireland,24911,79.9041,-150.3074,-12:00,"Eniwetok, Kwajalein",scarlett.lowe@example.com
2237,Hauptstraße,Bad Schwartau,Thüringen,Germany,99944,-85.3923,75.0764,-3:30,Newfoundland,timm.keil@example.com
1661,Rue Chazière,Feuerthalen,Appenzell Innerrhoden,Switzerland,9504,60.0958,120.9347,+1:00,"Brussels, Copenhagen, Madrid, Paris",josephine.lopez@example.com
5065,Blossom Hill Rd,Sunnyvale,Missouri,United States,39380,-36.3585,6.9794,+3:30,Tehran,kristin.coleman@example.com
9735,Crockett St,Kalgoorlie,Tasmania,Australia,8086,-46.3496,-36.6477,+9:00,"Tokyo, Seoul, Osaka, Sapporo, Yakutsk",beth.green@example.com
9733,Grejsdalsvej,Ølstykke,Hovedstaden,Denmark,22688,-66.9014,-156.9380,+1:00,"Brussels, Copenhagen, Madrid, Paris",naja.moller@example.com
2584,Calle Covadonga,Orense,Comunidad Valenciana,Spain,57372,54.8070,-56.6522,+3:30,Tehran,luis.soler@example.com
9615,Concession Road 6,Field,Alberta,Canada,O1A 9J7,-17.2763,53.8791,+3:00,"Baghdad, Riyadh, Moscow, St. Petersburg",delphine.young@example.com
1207,Montreal Street,Whangarei,Auckland,New Zealand,58739,-84.8626,63.8034,+1:00,"Brussels, Copenhagen, Madrid, Paris",ethan.thomas@example.com
3414,Schützenstraße,Landsberg,Hessen,Germany,22809,-45.2455,143.1584,-10:00,Hawaii,mareile.stephan@example.com
7236,Thistedvej,Frederiksberg,Nordjylland,Denmark,41444,-67.3178,171.7157,+9:30,"Adelaide, Darwin",mikkel.christiansen@example.com
9754,Marine Parade,Porirua,Southland,New Zealand,35176,67.2160,68.7710,+4:30,Kabul,scarlett.thompson@example.com
8008,Rua Duque de Caxias ,Juiz de Fora,Amazonas,Brazil,61366,-68.5871,32.3097,-7:00,Mountain Time (US & Canada),ambrosio.araujo@example.com
2978,Wycliff Ave,Kalgoorlie,South Australia,Australia,4412,-67.2915,25.6840,-10:00,Hawaii,ivan.king@example.com
141,First Street,Shepparton,Victoria,Australia,741,84.2298,-69.8400,-1:00,"Azores, Cape Verde Islands",brent.phillips@example.com
1300,Strand Road,Bray,Louth,Ireland,76331,63.7203,-146.0500,-4:00,"Atlantic Time (Canada), Caracas, La Paz",kayla.bishop@example.com
4979,East Coast Road,Auckland,Gisborne,New Zealand,29902,76.4064,-156.7757,+3:30,Tehran,naomi.thompson@example.com
5949,Talak Göktepe Cd,Aydın,Sakarya,Turkey,25991,56.9008,-96.0520,-9:00,Alaska,kubra.kunter@example.com
2402,Rue Dugas-Montbel,Herbetswil,Jura,Switzerland,8770,6.7361,-112.4661,-3:00,"Brazil, Buenos Aires, Georgetown",elsa.morin@example.com
7346,Jean Francois van Royenweg,Holtum,Overijssel,Netherlands,25768,-34.7991,78.5020,+1:00,"Brussels, Copenhagen, Madrid, Paris",sharen.ekkelboom@example.com
3764,Fideliohof,Azelo,Zuid-Holland,Netherlands,51793,-84.7593,-128.0040,0:00,"Western Europe Time, London, Lisbon, Casablanca",janske.vanhintum@example.com
9855,Quai Charles-De-Gaulle,Conters im Prättigau,Bern,Switzerland,7594,10.4612,-40.6352,+9:30,"Adelaide, Darwin",ernest.fournier@example.com
6969,Rønnevej,Lundby,Sjælland,Denmark,44973,-30.7501,69.3260,-6:00,"Central Time (US & Canada), Mexico City",asta.jorgensen@example.com
1563,Grubbenvorsterweg,Ysbrechtum,Drenthe,Netherlands,60378,28.6639,140.7108,-3:00,"Brazil, Buenos Aires, Georgetown",mare.brink@example.com
338,Highfield Road,Dublin,Meath,Ireland,64712,49.9578,-69.2475,+11:00,"Magadan, Solomon Islands, New Caledonia",roland.boyd@example.com
7528,Quai Charles-De-Gaulle,Nice,Ardennes,France,40602,12.2125,148.5955,+7:00,"Bangkok, Hanoi, Jakarta",celian.sanchez@example.com
6330,Royal Ln,Modesto,Connecticut,United States,61920,-20.9342,138.4630,+6:00,"Almaty, Dhaka, Colombo",ernest.romero@example.com
5116,Johan Sverdrups vei,Jørstadmoen,Telemark,Norway,1325,61.7606,-43.5522,-10:00,Hawaii,milo.narvestad@example.com
5773,Miller Ave,Orange,Tasmania,Australia,2951,-33.2711,173.9372,+9:00,"Tokyo, Seoul, Osaka, Sapporo, Yakutsk",perry.spencer@example.com
5054,Eichenweg,Heilbronn,Bremen,Germany,96393,-62.8234,166.5617,+8:00,"Beijing, Perth, Singapore, Hong Kong",elsa.wetzel@example.com
8684,Rue Barrème,Nîmes,Dordogne,France,34073,-52.9606,112.5842,+9:30,"Adelaide, Darwin",mael.renaud@example.com
3122,Bergstraße,Buttelstedt,Baden-Württemberg,Germany,34235,21.1936,87.0491,-3:00,"Brazil, Buenos Aires, Georgetown",annett.grosch@example.com
2808,Rautatienkatu,Malax,Pirkanmaa,Finland,15850,59.8954,125.3863,+3:00,"Baghdad, Riyadh, Moscow, St. Petersburg",joona.raisanen@example.com
2662,Tehtaankatu,Kimitoön,Finland Proper,Finland,38862,-11.8005,-94.3160,+1:00,"Brussels, Copenhagen, Madrid, Paris",emil.wainio@example.com
8453,The Crescent,Dunboyne,Fingal,Ireland,51813,89.3196,140.2906,-3:30,Newfoundland,susie.hopkins@example.com
9173,Rue de L'Abbaye,Rouen,Hautes-Pyrénées,France,54156,31.6421,-93.8233,-12:00,"Eniwetok, Kwajalein",luis.roy@example.com
6401,Filistin Cd,Denizli,Sivas,Turkey,28866,48.6167,-16.4049,+4:00,"Abu Dhabi, Muscat, Baku, Tbilisi",ceyhan.balci@example.com
611,Rua Dois,Recife,Acre,Brazil,99760,53.6146,-143.7442,+8:00,"Beijing, Perth, Singapore, Hong Kong",clarissa.daconceicao@example.com
9089,Mt Albert Road,Tauranga,Nelson,New Zealand,75288,3.4726,-48.3600,-12:00,"Eniwetok, Kwajalein",layla.anderson@example.com
2885,Am Sportplatz,Plau am See,Baden-Württemberg,Germany,93562,-0.2302,115.4730,-7:00,Mountain Time (US & Canada),eckhard.figge@example.com
8527,Groene Woud,Nieuweroord,Friesland,Netherlands,56717,-43.1721,-124.6122,+10:00,"Eastern Australia, Guam, Vladivostok",rifka.bolding@example.com
6561,Royal Road,Napier,Waikato,New Zealand,62825,33.3103,-161.6268,-9:00,Alaska,alexandra.cooper@example.com
8097,Skovbyvej,Overby Lyng,Hovedstaden,Denmark,98557,-55.7283,14.6400,-6:00,"Central Time (US & Canada), Mexico City",andreas.poulsen@example.com
4039,Solvangveien,Fanahammeren,Hedmark,Norway,7302,15.9418,139.5331,+10:00,"Eastern Australia, Guam, Vladivostok",mina.oyan@example.com
307,Rua da Paz ,Recife,Ceará,Brazil,92780,43.1721,86.5943,-8:00,Pacific Time (US & Canada),valdelaine.ferreira@example.com
526,Rue Paul-Duvivier,Aesch (Zh),Thurgau,Switzerland,6765,37.1184,8.0956,+10:00,"Eastern Australia, Guam, Vladivostok",georgios.marchand@example.com
2564,Filistin Cd,Ankara,Ordu,Turkey,37044,10.0351,-13.6898,-10:00,Hawaii,deniz.gunday@example.com
1511,دکتر مفتح,سیرجان,سمنان,Iran,94782,30.5004,23.5098,+9:30,"Adelaide, Darwin",sm.aalyzdh@example.com
8653,Otavalankatu,Veteli,Northern Ostrobothnia,Finland,49556,-39.7528,118.6833,+3:00,"Baghdad, Riyadh, Moscow, St. Petersburg",elias.savela@example.com
8993,Pierre Ave,Windsor,Newfoundland and Labrador,Canada,A9T 4K4,57.4334,-57.4070,+4:30,Kabul,etienne.denys@example.com
